{
    "links": {
        "self": "http://www.neowsapp.com/rest/v1/neo/3367720?api_key=iIulBulltgU6a56xZRHN4H3l9WmuAYTsLGpBGhQ2"
    },
    "id": "3367720",
    "neo_reference_id": "3367720",
    "name": "(2007 CR5)",
    "designation": "2007 CR5",
    "nasa_jpl_url": "http://ssd.jpl.nasa.gov/sbdb.cgi?sstr=3367720",
    "absolute_magnitude_h": 25.4,
    "estimated_diameter": {
        "kilometers": {
            "estimated_diameter_min": 0.022108281,
            "estimated_diameter_max": 0.0494356193
        },
        "meters": {
            "estimated_diameter_min": 22.1082810359,
            "estimated_diameter_max": 49.435619262
        },
        "miles": {
            "estimated_diameter_min": 0.0137374447,
            "estimated_diameter_max": 0.0307178602
        },
        "feet": {
            "estimated_diameter_min": 72.5337327539,
            "estimated_diameter_max": 162.1903570994
        }
    },
    "is_potentially_hazardous_asteroid": false,
    "close_approach_data": [
        {
            "close_approach_date": "1965-10-10",
            "close_approach_date_full": "1965-Oct-10 15:09",
            "epoch_date_close_approach": -133347060000,
            "relative_velocity": {
                "kilometers_per_second": "16.9831811451",
                "kilometers_per_hour": "61139.4521221912",
                "miles_per_hour": "37989.6779033693"
            },
            "miss_distance": {
                "astronomical": "0.3387957595",
                "lunar": "131.7915504455",
                "kilometers": "50683123.986232265",
                "miles": "31493032.893704657"
            },
            "orbiting_body": "Earth"
        },
        {
            "close_approach_date": "2002-10-07",
            "close_approach_date_full": "2002-Oct-07 18:18",
            "epoch_date_close_approach": 1034014680000,
            "relative_velocity": {
                "kilometers_per_second": "19.0540312822",
                "kilometers_per_hour": "68594.5126159945",
                "miles_per_hour": "42621.9625751995"
            },
            "miss_distance": {
                "astronomical": "0.3937967053",
                "lunar": "153.1869183617",
                "kilometers": "58911148.325897711",
                "miles": "36605690.1413059718"
            },
            "orbiting_body": "Earth"
        },
        {
            "close_approach_date": "2006-10-03",
            "close_approach_date_full": "2006-Oct-03 11:40",
            "epoch_date_close_approach": 1159875600000,
            "relative_velocity": {
                "kilometers_per_second": "6.4766112298",
                "kilometers_per_hour": "23315.8004271851",
                "miles_per_hour": "14487.5316598807"
            },
            "miss_distance": {
                "astronomical": "0.4631956614",
                "lunar": "180.1831122846",
                "kilometers": "69293084.338681218",
                "miles": "43056726.0411400884"
            },
            "orbiting_body": "Earth"
        },
        {
            "close_approach_date": "2007-02-06",
            "close_approach_date_full": "2007-Feb-06 04:59",
            "epoch_date_close_approach": 1170737940000,
            "relative_velocity": {
                "kilometers_per_second": "12.0280899575",
                "kilometers_per_hour": "43301.1238469942",
                "miles_per_hour": "26905.6344259282"
            },
            "miss_distance": {
                "astronomical": "0.0144669177",
                "lunar": "5.6276309853",
                "kilometers": "2164220.073385299",
                "miles": "1344783.9951391662"
            },
            "orbiting_body": "Earth"
        },
        {
            "close_approach_date": "2009-03-01",
            "close_approach_date_full": "2009-Mar-01 06:53",
            "epoch_date_close_approach": 1235890380000,
            "relative_velocity": {
                "kilometers_per_second": "21.6367004349",
                "kilometers_per_hour": "77892.1215657073",
                "miles_per_hour": "48399.1352028696"
            },
            "miss_distance": {
                "astronomical": "0.3752905928",
                "lunar": "145.9880405992",
                "kilometers": "56142673.313917336",
                "miles": "34885439.5379417968"
            },
            "orbiting_body": "Earth"
        }
    ],
    "orbital_data": {
        "orbit_id": "8",
        "orbit_determination_date": "2017-04-06 09:07:07",
        "first_observation_date": "2007-02-08",
        "last_observation_date": "2007-02-15",
        "data_arc_in_days": 7,
        "observations_used": 27,
        "orbit_uncertainty": "8",
        "minimum_orbit_intersection": ".0140244",
        "jupiter_tisserand_invariant": "4.185",
        "epoch_osculation": "2454140.5",
        "eccentricity": ".4450855830091619",
        "semi_major_axis": "1.618420524422655",
        "inclination": "13.86024022298859",
        "ascending_node_longitude": "138.9300156493986",
        "orbital_period": "752.030566533782",
        "perihelion_distance": ".8980848817560039",
        "perihelion_argument": "310.534949903689",
        "aphelion_distance": "2.338756167089306",
        "perihelion_time": "2454101.311686228066",
        "mean_anomaly": "18.75960045470107",
        "mean_motion": ".4787039463825151",
        "equinox": "J2000",
        "orbit_class": {
            "orbit_class_type": "APO",
            "orbit_class_description": "Near-Earth asteroid orbits which cross the Earth’s orbit similar to that of 1862 Apollo",
            "orbit_class_range": "a (semi-major axis) > 1.0 AU; q (perihelion) < 1.017 AU"
        }
    },
    "is_sentry_object": false
}